CAS-2T & KS-1Q          
1 41847U 16066G   20272.87613770  .00000111  00000-0  28176-4 0  9996
2 41847  98.6433 324.3748 0364457 280.7449  75.2912 14.38093582204288
NAYIF-1 (EO-88)         
1 42017U 17008BX  20272.84982221  .00003320  00000-0  12889-3 0  9998
2 42017  97.3511 338.8678 0005034 330.6533  29.4422 15.26775807201329
MAX VALIER SAT          
1 42778U 17036P   20272.71210202  .00001806  00000-0  80088-4 0  9996
2 42778  97.2947 323.4411 0012756  26.8647 333.3248 15.22791047181442
RADFXSAT (FOX-1B)       
1 43017U 17073E   20272.56430622  .00001219  00000-0  98605-4 0  9999
2 43017  97.7152 180.7940 0258117  74.4312 288.5231 14.79031813154402
FOX-1D (AO-92)          
1 43137U 18004AC  20272.16055743  .00002044  00000-0  86454-4 0  9996
2 43137  97.4375 342.5907 0010532  60.5293 299.6994 15.24309955150682
DIWATA-2B               
1 43678U 18084H   20272.77967834  .00000499  00000-0  55335-4 0  9990
2 43678  97.8953  31.2454 0009526 187.3439 172.7640 14.91657630104427
ES'HAIL 2               
1 43700U 18090A   20272.78394265  .00000124  00000-0  00000+0 0  9995
2 43700   0.0233 170.1807 0002002  35.1720 110.6597  1.00270049  6985
FOX-1CLIFF (AO-95)      
1 43770U 18099N   20272.44740630  .00000131  00000-0  17216-4 0  9995
2 43770  97.6977 341.9912 0013871 208.2421 151.8049 14.95049015 99303
ITASAT 1                
1 43786U 18099AE  20272.15362976  .00000841  00000-0  81229-4 0  9996
2 43786  97.6995 342.1957 0014605 202.0218 158.0377 14.95380930 99288
JY1SAT (JO-97)          
1 43803U 18099AX  20272.15565393  .00000923  00000-0  88259-4 0  9995
2 43803  97.6956 341.9931 0014549 202.2069 157.8523 14.95570166 99289
PSAT2 (NO-104)          
1 44354U 19036R   20272.48578003  .00015884  00000-0  22900-3 0  9999
2 44354  28.5318  63.0615 0356834 332.9041  25.3329 15.05362901 69350
BRICSAT2 (NO-103)       
1 44355U 19036S   20271.74217168  .00022002  00000-0  29647-3 0  9995
2 44355  28.5310  53.0520 0329232 349.2048  10.1613 15.12406401 69380
JAISAT-1                
1 44419U 19038F   20272.53860538  .00001529  00000-0  90036-4 0  9993
2 44419  97.5501 232.9960 0022626 132.3266 227.9887 15.12936246 68188
DUCHIFAT-3              
1 44854U 19089C   20272.86811585  .00000549  00000-0  50657-4 0  9992
2 44854  36.9657 207.1631 0007935 186.8532 173.2121 14.99137301 43822
RS-44 & BREEZE-KM R/B   
1 44909U 19096E   20272.79396301  .00000040  00000-0  12035-3 0  9990
2 44909  82.5170 286.6485 0217086 345.2033  14.2778 12.79708323 35407
ORBITAL FACTORY 2 (OF-2)
1 45113U 19071C   20272.90459070  .00003986  00000-0  13157-3 0  9995
2 45113  51.6418 223.6811 0013587  70.9798 289.2655 15.33718349 37009
HUSKYSAT-1              
1 45119U 19071J   20272.34798578  .00005454  00000-0  17474-3 0  9996
2 45119  51.6414 225.9651 0012762  65.6814 294.5499 15.33904901 36917
